HELIOS 1B               
1 25977U 99064A   26069.31918131  .00002275  00000+0  25615-3 0  9995
2 25977  98.1688 331.5811 0002457  74.1956 285.9530 14.87702169685358
TERRA                   
1 25994U 99068A   26069.47751451  .00000554  00000+0  12207-3 0  9996
2 25994  97.9593 122.8822 0002746 149.5117 318.5160 14.61015689395197
SL-16 R/B               
1 26070U 00006B   26069.50703013 -.00000123  00000+0 -38249-4 0  9990
2 26070  71.0009  96.1189 0016732 189.0411 171.0413 14.15825706348675
TITAN 4B R/B            
1 26474U 00047B   26069.49164612  .00005514  00000+0  34475-3 0  9990
2 26474  67.9902  38.2551 0038655  34.4661 325.8983 15.09572482393032
ENVISAT                 
1 27386U 02009A   26069.45591105  .00000182  00000+0  72743-4 0  9997
2 27386  98.3729  23.0350 0001301  82.8417  27.5794 14.39037348259286
IDEFIX & ARIANE 42P R/B 
1 27422U 02021B   26069.40482294  .00000369  00000+0  15668-3 0  9994
2 27422  98.5868   8.0026 0011617 180.2055 179.9125 14.31026889244125
AQUA                    
1 27424U 02022A   26069.51513618  .00001382  00000+0  28550-3 0  9994
2 27424  98.4176  36.8951 0000557  83.0515  26.9141 14.61979620268854
CZ-4B R/B               
1 27432U 02024C   26069.13614772  .00000038  00000+0  42305-4 0  9998
2 27432  98.8838 122.5407 0050462  22.9379   1.3520 14.14547639229305
MIDORI II (ADEOS-II)    
1 27597U 02056A   26069.50375391  .00000412  00000+0  17987-3 0  9990
2 27597  98.7769  27.9869 0001541  41.0181 319.1116 14.29285941210410
H-2A R/B                
1 27601U 02056E   26069.48442534  .00000345  00000+0  13517-3 0  9997
2 27601  98.3204  29.8197 0070546 158.3334 311.4788 14.33761413214225
CZ-4B R/B               
1 28059U 03049C   26069.48380574  .00000485  00000+0  12291-3 0  9996
2 28059  98.6880  64.4197 0047289 228.4356 131.2781 14.55021095186714
CZ-2C R/B               
1 28222U 04012C   26069.44059983  .00069335  00000+0  71185-3 0  9998
2 28222  97.7221 134.8041 0012919 306.5896  53.4173 15.64603996204396
SL-16 R/B               
1 28353U 04021B   26069.51769810 -.00000252  00000+0 -10617-3 0  9996
2 28353  70.9996 230.7547 0004101   8.1324 351.9864 14.14597679122953
CZ-4B R/B               
1 28415U 04035C   26069.10555057  .00009794  00000+0  34466-3 0  9997
2 28415  97.3501 103.3428 0030975 330.0330  29.9136 15.29073214179971
CZ-2C R/B               
1 28480U 04046B   26069.32699901  .00000153  00000+0  71691-4 0  9994
2 28480  98.1982 344.2713 0139909 152.5682 208.2976 14.26992327108597
ARIANE 5 R/B            
1 28499U 04049H   26069.44108167  .00001003  00000+0  11688-3 0  9993
2 28499  98.2628 237.9263 0083880 349.4760  10.4695 14.85267584145905
CZ-2D R/B               
1 28738U 05024B   26069.47903597  .00052238  00000+0  63901-3 0  9997
2 28738  97.3605  84.6545 0005741  44.1911 315.9803 15.60229062139903
